{"fetched_at":"2026-07-13T07:48:41.766Z","source":"https://celestrak.org/NORAD/elements/gp.php?NAME=SENTINEL&FORMAT=JSON","constellation":"sentinel-6","records":[{"OBJECT_NAME":"SENTINEL-6A","OBJECT_ID":"2020-086A","EPOCH":"2026-07-12T18:32:21.054624","CLASSIFICATION_TYPE":"U","MEAN_MOTION":12.80930079,"ECCENTRICITY":0.000781,"INCLINATION":66.0413,"RA_OF_ASC_NODE":81.9128,"ARG_OF_PERICENTER":269.9187,"MEAN_ANOMALY":90.0934,"EPHEMERIS_TYPE":0,"NORAD_CAT_ID":46984,"ELEMENT_SET_NO":999,"REV_AT_EPOCH":26360,"BSTAR":-0.0000043482,"MEAN_MOTION_DOT":-6.2e-7,"MEAN_MOTION_DDOT":0},{"OBJECT_NAME":"SENTINEL-6B","OBJECT_ID":"2025-264A","EPOCH":"2026-07-12T18:32:51.119232","CLASSIFICATION_TYPE":"U","MEAN_MOTION":12.80930076,"ECCENTRICITY":0.0007871,"INCLINATION":66.0413,"RA_OF_ASC_NODE":82.0381,"ARG_OF_PERICENTER":268.7737,"MEAN_ANOMALY":91.2377,"EPHEMERIS_TYPE":0,"NORAD_CAT_ID":66514,"ELEMENT_SET_NO":999,"REV_AT_EPOCH":3044,"BSTAR":-0.0000069054,"MEAN_MOTION_DOT":-6.3e-7,"MEAN_MOTION_DDOT":0}]}
